start=new Date('2022-03-02T00:00:00.000Z').valueOf();
sats=[{"MEAN_MOTION_DDOT":"0.0000000000000","EPHEMERIS_TYPE":"0","TLE_LINE1":"1 45234U 20012BJ  22060.67199427  .00001140  00000-0  95437-4 0  9996","COUNTRY_CODE":"US","PERIAPSIS":"546.273","OBJECT_ID":"2020-012BJ","CLASSIFICATION_TYPE":"U","INCLINATION":"53.0553","REV_AT_EPOCH":"11251","SEMIMAJOR_AXIS":"6925.365","TIME_SYSTEM":"UTC","REF_FRAME":"TEME","PERIOD":"95.592","ECCENTRICITY":"0.00013820","NORAD_CAT_ID":"45234","EPOCH":"2022-03-01T16:07:40.304928","MEAN_MOTION_DOT":"0.00001140","ELEMENT_SET_NO":"999","TLE_LINE2":"2 45234  53.0553 161.2834 0001382  71.4259 288.6880 15.06394523112516","LAUNCH_DATE":"2020-02-17","RA_OF_ASC_NODE":"161.2834","MEAN_MOTION":"15.06394523","ARG_OF_PERICENTER":"71.4259","OBJECT_NAME":"STARLINK-1243","CENTER_NAME":"EARTH","MEAN_ELEMENT_THEORY":"SGP4","DECAY_DATE":null,"RCS_SIZE":"LARGE","APOAPSIS":"548.187","OBJECT_TYPE":"PAYLOAD","SITE":"AFETR","MEAN_ANOMALY":"288.6880","GP_ID":"197502432","FILE":"3337780","BSTAR":"0.00009543700000"},{"REF_FRAME":"TEME","PERIOD":"95.593","ECCENTRICITY":"0.00015530","NORAD_CAT_ID":"45235","EPOCH":"2022-03-01T15:46:26.602176","MEAN_MOTION_DOT":"0.00000448","ELEMENT_SET_NO":"999","TLE_LINE2":"2 45235  53.0529 161.3675 0001553  65.1501 294.9649 15.06390180113445","MEAN_MOTION_DDOT":"0.0000000000000","TLE_LINE1":"1 45235U 20012BK  22060.65725234  .00000448  00000-0  48985-4 0  9992","COUNTRY_CODE":"US","EPHEMERIS_TYPE":"0","PERIAPSIS":"546.168","OBJECT_ID":"2020-012BK","CLASSIFICATION_TYPE":"U","REV_AT_EPOCH":"11344","INCLINATION":"53.0529","SEMIMAJOR_AXIS":"6925.379","TIME_SYSTEM":"UTC","MEAN_ELEMENT_THEORY":"SGP4","DECAY_DATE":null,"RCS_SIZE":"LARGE","APOAPSIS":"548.319","OBJECT_TYPE":"PAYLOAD","MEAN_ANOMALY":"294.9649","SITE":"AFETR","GP_ID":"197539311","FILE":"3338635","BSTAR":"0.00004898500000","LAUNCH_DATE":"2020-02-17","RA_OF_ASC_NODE":"161.3675","MEAN_MOTION":"15.06390180","ARG_OF_PERICENTER":"65.1501","OBJECT_NAME":"STARLINK-1246","CENTER_NAME":"EARTH"},{"FILE":"3338635","BSTAR":"0.00088820000000","MEAN_ANOMALY":"309.0333","SITE":"AFETR","GP_ID":"197539561","OBJECT_TYPE":"PAYLOAD","APOAPSIS":"548.757","DECAY_DATE":null,"RCS_SIZE":"LARGE","MEAN_ELEMENT_THEORY":"SGP4","ARG_OF_PERICENTER":"51.0835","OBJECT_NAME":"STARLINK-1247","CENTER_NAME":"EARTH","MEAN_MOTION":"15.06349311","RA_OF_ASC_NODE":"121.7353","LAUNCH_DATE":"2020-02-17","TLE_LINE2":"2 45236  53.0533 121.7353 0002004  51.0835 309.0333 15.06349311113965","ELEMENT_SET_NO":"999","EPOCH":"2022-03-01T13:44:23.685504","MEAN_MOTION_DOT":"0.00012955","NORAD_CAT_ID":"45236","PERIOD":"95.595","ECCENTRICITY":"0.00020040","REF_FRAME":"TEME","SEMIMAJOR_AXIS":"6925.504","TIME_SYSTEM":"UTC","REV_AT_EPOCH":"11396","INCLINATION":"53.0533","CLASSIFICATION_TYPE":"U","OBJECT_ID":"2020-012BL","TLE_LINE1":"1 45236U 20012BL  22060.57249636  .00012955  00000-0  88820-3 0  9998","EPHEMERIS_TYPE":"0","COUNTRY_CODE":"US","PERIAPSIS":"545.981","MEAN_MOTION_DDOT":"0.0000000000000"},{"RA_OF_ASC_NODE":"121.6584","LAUNCH_DATE":"2020-02-17","ARG_OF_PERICENTER":"53.9697","OBJECT_NAME":"STARLINK-1270","CENTER_NAME":"EARTH","MEAN_MOTION":"15.06393253","DECAY_DATE":null,"RCS_SIZE":"LARGE","APOAPSIS":"548.398","MEAN_ELEMENT_THEORY":"SGP4","FILE":"3338635","BSTAR":"0.00008101400000","OBJECT_TYPE":"PAYLOAD","MEAN_ANOMALY":"306.1447","SITE":"AFETR","GP_ID":"197540812","TLE_LINE1":"1 45237U 20012BM  22060.59458927  .00000925  00000-0  81014-4 0  9999","EPHEMERIS_TYPE":"0","COUNTRY_CODE":"US","PERIAPSIS":"546.070","MEAN_MOTION_DDOT":"0.0000000000000","INCLINATION":"53.0548","REV_AT_EPOCH":"11397","SEMIMAJOR_AXIS":"6925.369","TIME_SYSTEM":"UTC","OBJECT_ID":"2020-012BM","CLASSIFICATION_TYPE":"U","NORAD_CAT_ID":"45237","REF_FRAME":"TEME","PERIOD":"95.593","ECCENTRICITY":"0.00016810","ELEMENT_SET_NO":"999","TLE_LINE2":"2 45237  53.0548 121.6584 0001681  53.9697 306.1447 15.06393253113973","EPOCH":"2022-03-01T14:16:12.512928","MEAN_MOTION_DOT":"0.00000925"},{"ARG_OF_PERICENTER":"75.2629","CENTER_NAME":"EARTH","OBJECT_NAME":"STARLINK-1279","MEAN_MOTION":"15.06399608","RA_OF_ASC_NODE":"250.6373","LAUNCH_DATE":"2020-03-18","FILE":"3338635","BSTAR":"0.00000723040000","MEAN_ANOMALY":"284.8560","SITE":"AFETR","GP_ID":"197540074","OBJECT_TYPE":"PAYLOAD","APOAPSIS":"548.461","DECAY_DATE":null,"RCS_SIZE":"LARGE","MEAN_ELEMENT_THEORY":"SGP4","SEMIMAJOR_AXIS":"6925.350","TIME_SYSTEM":"UTC","REV_AT_EPOCH":"10874","INCLINATION":"53.0540","CLASSIFICATION_TYPE":"U","OBJECT_ID":"2020-019A","COUNTRY_CODE":"US","TLE_LINE1":"1 45360U 20019A   22060.81851870 -.00000174  00000-0  72304-5 0  9992","EPHEMERIS_TYPE":"0","PERIAPSIS":"545.968","MEAN_MOTION_DDOT":"0.0000000000000","TLE_LINE2":"2 45360  53.0540 250.6373 0001800  75.2629 284.8560 15.06399608108743","ELEMENT_SET_NO":"999","EPOCH":"2022-03-01T19:38:40.015680","MEAN_MOTION_DOT":"-0.00000174","NORAD_CAT_ID":"45360","PERIOD":"95.592","ECCENTRICITY":"0.00018000","REF_FRAME":"TEME"},{"CENTER_NAME":"EARTH","OBJECT_NAME":"STARLINK-1301","ARG_OF_PERICENTER":"81.5235","MEAN_MOTION":"15.06394313","RA_OF_ASC_NODE":"260.3929","LAUNCH_DATE":"2020-03-18","BSTAR":"0.00000831960000","FILE":"3338635","GP_ID":"197540326","SITE":"AFETR","MEAN_ANOMALY":"278.5914","OBJECT_TYPE":"PAYLOAD","APOAPSIS":"548.211","DECAY_DATE":null,"RCS_SIZE":"LARGE","MEAN_ELEMENT_THEORY":"SGP4","TIME_SYSTEM":"UTC","SEMIMAJOR_AXIS":"6925.366","INCLINATION":"53.0538","REV_AT_EPOCH":"10862","CLASSIFICATION_TYPE":"U","OBJECT_ID":"2020-019B","PERIAPSIS":"546.251","EPHEMERIS_TYPE":"0","TLE_LINE1":"1 45361U 20019B   22060.87288232 -.00000158  00000-0  83196-5 0  9998","COUNTRY_CODE":"US","MEAN_MOTION_DDOT":"0.0000000000000","TLE_LINE2":"2 45361  53.0538 260.3929 0001415  81.5235 278.5914 15.06394313108629","ELEMENT_SET_NO":"999","MEAN_MOTION_DOT":"-0.00000158","EPOCH":"2022-03-01T20:56:57.032448","NORAD_CAT_ID":"45361","ECCENTRICITY":"0.00014150","PERIOD":"95.593","REF_FRAME":"TEME"},{"TLE_LINE2":"2 45362  53.0534 280.1859 0001512  65.9889 294.1258 15.06396103108340","ELEMENT_SET_NO":"999","MEAN_MOTION_DOT":"0.00000305","EPOCH":"2022-03-01T22:03:17.808768","NORAD_CAT_ID":"45362","PERIOD":"95.592","ECCENTRICITY":"0.00015120","REF_FRAME":"TEME","TIME_SYSTEM":"UTC","SEMIMAJOR_AXIS":"6925.361","REV_AT_EPOCH":"10834","INCLINATION":"53.0534","CLASSIFICATION_TYPE":"U","OBJECT_ID":"2020-019C","PERIAPSIS":"546.178","TLE_LINE1":"1 45362U 20019C   22060.91895612  .00000305  00000-0  39394-4 0  9993","EPHEMERIS_TYPE":"0","COUNTRY_CODE":"US","MEAN_MOTION_DDOT":"0.0000000000000","BSTAR":"0.00003939400000","FILE":"3338635","GP_ID":"197540577","SITE":"AFETR","MEAN_ANOMALY":"294.1258","OBJECT_TYPE":"PAYLOAD","APOAPSIS":"548.273","RCS_SIZE":"LARGE","DECAY_DATE":null,"MEAN_ELEMENT_THEORY":"SGP4","OBJECT_NAME":"STARLINK-1306","CENTER_NAME":"EARTH","ARG_OF_PERICENTER":"65.9889","MEAN_MOTION":"15.06396103","RA_OF_ASC_NODE":"280.1859","LAUNCH_DATE":"2020-03-18"},{"NORAD_CAT_ID":"45364","PERIOD":"95.592","ECCENTRICITY":"0.00015300","REF_FRAME":"TEME","TLE_LINE2":"2 45364  53.0544 250.6590 0001530  68.8633 291.2519 15.06395358108749","ELEMENT_SET_NO":"999","MEAN_MOTION_DOT":"0.00001092","EPOCH":"2022-03-01T19:33:21.141792","PERIAPSIS":"546.168","TLE_LINE1":"1 45364U 20019E   22060.81482803  .00001092  00000-0  92185-4 0  9999","COUNTRY_CODE":"US","EPHEMERIS_TYPE":"0","MEAN_MOTION_DDOT":"0.0000000000000","TIME_SYSTEM":"UTC","SEMIMAJOR_AXIS":"6925.363","INCLINATION":"53.0544","REV_AT_EPOCH":"10874","CLASSIFICATION_TYPE":"U","OBJECT_ID":"2020-019E","APOAPSIS":"548.287","RCS_SIZE":"LARGE","DECAY_DATE":null,"MEAN_ELEMENT_THEORY":"SGP4","BSTAR":"0.00009218500000","FILE":"3338635","GP_ID":"197539325","SITE":"AFETR","MEAN_ANOMALY":"291.2519","OBJECT_TYPE":"PAYLOAD","RA_OF_ASC_NODE":"250.6590","LAUNCH_DATE":"2020-03-18","OBJECT_NAME":"STARLINK-1313","CENTER_NAME":"EARTH","ARG_OF_PERICENTER":"68.8633","MEAN_MOTION":"15.06395358"},{"FILE":"3338635","BSTAR":"0.00000915000000","MEAN_ANOMALY":"286.4793","SITE":"AFETR","GP_ID":"197539575","OBJECT_TYPE":"PAYLOAD","APOAPSIS":"550.769","RCS_SIZE":"LARGE","DECAY_DATE":null,"MEAN_ELEMENT_THEORY":"SGP4","ARG_OF_PERICENTER":"73.6362","CENTER_NAME":"EARTH","OBJECT_NAME":"STARLINK-1317","MEAN_MOTION":"15.05583796","RA_OF_ASC_NODE":"260.5980","LAUNCH_DATE":"2020-03-18","TLE_LINE2":"2 45365  52.9991 260.5980 0001520  73.6362 286.4793 15.05583796108574","ELEMENT_SET_NO":"999","EPOCH":"2022-03-01T19:56:16.799136","MEAN_MOTION_DOT":"-0.00000146","NORAD_CAT_ID":"45365","PERIOD":"95.644","ECCENTRICITY":"0.00015200","REF_FRAME":"TEME","SEMIMAJOR_AXIS":"6927.851","TIME_SYSTEM":"UTC","REV_AT_EPOCH":"10857","INCLINATION":"52.9991","CLASSIFICATION_TYPE":"U","OBJECT_ID":"2020-019F","EPHEMERIS_TYPE":"0","TLE_LINE1":"1 45365U 20019F   22060.83074999 -.00000146  00000-0  91500-5 0  9996","COUNTRY_CODE":"US","PERIAPSIS":"548.663","MEAN_MOTION_DDOT":"0.0000000000000"},{"APOAPSIS":"548.384","DECAY_DATE":null,"RCS_SIZE":"LARGE","MEAN_ELEMENT_THEORY":"SGP4","BSTAR":"0.00006005500000","FILE":"3338635","GP_ID":"197540826","SITE":"AFETR","MEAN_ANOMALY":"289.2640","OBJECT_TYPE":"PAYLOAD","RA_OF_ASC_NODE":"280.2449","LAUNCH_DATE":"2020-03-18","OBJECT_NAME":"STARLINK-1262","CENTER_NAME":"EARTH","ARG_OF_PERICENTER":"70.8533","MEAN_MOTION":"15.06402096","NORAD_CAT_ID":"45366","ECCENTRICITY":"0.00016990","PERIOD":"95.592","REF_FRAME":"TEME","TLE_LINE2":"2 45366  53.0544 280.2449 0001699  70.8533 289.2640 15.06402096108358","ELEMENT_SET_NO":"999","MEAN_MOTION_DOT":"0.00000613","EPOCH":"2022-03-01T21:42:03.858912","PERIAPSIS":"546.031","EPHEMERIS_TYPE":"0","TLE_LINE1":"1 45366U 20019G   22060.90421133  .00000613  00000-0  60055-4 0  9999","COUNTRY_CODE":"US","MEAN_MOTION_DDOT":"0.0000000000000","TIME_SYSTEM":"UTC","SEMIMAJOR_AXIS":"6925.342","REV_AT_EPOCH":"10835","INCLINATION":"53.0544","CLASSIFICATION_TYPE":"U","OBJECT_ID":"2020-019G"}];
